*******************************************************************************
Ephemeris / WWW_USER Mon Jul 15 19:15:18 2024 Pasadena, USA      / Horizons    
*******************************************************************************
Target body name: (2018 WV1)                      {source: JPL#17}
Center body name: Earth (399)                     {source: DE441}
Center-site name: Gemini South Obs., Cerro Pachon
*******************************************************************************
Start time      : A.D. 2018-Dec-17 23:51:00.0000 UT      
Stop  time      : A.D. 2018-Dec-18 09:27:00.0000 UT      
Step-size       : 1 minutes
*******************************************************************************
Target pole/equ : undefined
Target radii    : undefined                                                    
Center geodetic : 289.2634, -30.2406227, 2.71233  {E-lon(deg),Lat(deg),Alt(km)}
Center cylindric: 289.2634,5517.21435,-3194.81213 {E-lon(deg),Dxy(km),Dz(km)}
Center pole/equ : ITRF93                          {East-longitude positive}
Center radii    : 6378.137, 6378.137, 6356.752 km {Equator_a, b, pole_c}       
Target primary  : Sun
Vis. interferer : MOON (R_eq= 1737.400) km        {source: DE441}
Rel. light bend : Sun                             {source: DE441}
Rel. lght bnd GM: 1.3271E+11 km^3/s^2                                          
Small-body perts: Yes                             {source: SB441-N16}
Atmos refraction: NO (AIRLESS)
RA format       : HMS
Time format     : CAL 
Calendar mode   : Mixed Julian/Gregorian
RTS-only print  : NO       
EOP file        : eop.240715.p241008                                           
EOP coverage    : DATA-BASED 1962-JAN-20 TO 2024-JUL-15. PREDICTS-> 2024-OCT-07
Units conversion: 1 au= 149597870.700 km, c= 299792.458 km/s, 1 day= 86400.0 s 
Table cut-offs 1: Elevation (-90.0deg=NO ),Airmass (>38.000=NO), Daylight (YES)
Table cut-offs 2: Solar elongation (  0.0,180.0=NO ),Local Hour Angle( 0.0=NO )
Table cut-offs 3: RA/DEC angular rate (     0.0=NO )                           
*******************************************************************************
Initial IAU76/J2000 heliocentric ecliptic osculating elements (au, days, deg.):
  EPOCH=  2458458.5 ! 2018-Dec-06.00 (TDB)         Residual RMS= .12928        
   EC= .06869100257422787  QR= .9715505345748198   TP= 2458416.866413563       
   OM= 248.5061090469913   W=  141.3742304527303   IN= 1.905403987972275       
  Equivalent ICRF heliocentric cartesian coordinates (au, au/d):
   X= 2.787163119783287E-01  Y= 8.719775267121872E-01  Z= 3.748421051204766E-01
  VX=-1.676682657337402E-02 VY= 5.516972965834891E-03 VZ= 1.749720915605096E-03
Asteroid physical parameters (km, seconds, rotational period in hours):        
   GM= n.a.                RAD= n.a.               ROTPER= n.a.                
   H= 30.3                 G= .150                 B-V= n.a.                   
                           ALBEDO= n.a.            STYP= n.a.                  
*******************************************************************************
 Date__(UT)__HR:MN     R.A._________(ICRF)_________DEC
******************************************************
$$SOE
 2018-Dec-18 08:03 A   06 00 39.477808 -08 12 42.94132
 2018-Dec-18 08:04 A   06 00 39.372697 -08 12 42.27176
 2018-Dec-18 08:05 A   06 00 39.267993 -08 12 41.60143
 2018-Dec-18 08:06 A   06 00 39.163697 -08 12 40.93032
 2018-Dec-18 08:07 A   06 00 39.059813 -08 12 40.25844
 2018-Dec-18 08:08 A   06 00 38.956340 -08 12 39.58578
 2018-Dec-18 08:09 A   06 00 38.853281 -08 12 38.91237
 2018-Dec-18 08:10 A   06 00 38.750637 -08 12 38.23819
 2018-Dec-18 08:11 A   06 00 38.648409 -08 12 37.56325
 2018-Dec-18 08:12 A   06 00 38.546600 -08 12 36.88756
 2018-Dec-18 08:13 A   06 00 38.445211 -08 12 36.21112
 2018-Dec-18 08:14 A   06 00 38.344242 -08 12 35.53394
 2018-Dec-18 08:15 A   06 00 38.243697 -08 12 34.85601
 2018-Dec-18 08:16 A   06 00 38.143576 -08 12 34.17735
 2018-Dec-18 08:17 A   06 00 38.043880 -08 12 33.49795
 2018-Dec-18 08:18 A   06 00 37.944612 -08 12 32.81783
 2018-Dec-18 08:19 A   06 00 37.845772 -08 12 32.13698
 2018-Dec-18 08:20 A   06 00 37.747363 -08 12 31.45540
 2018-Dec-18 08:21 A   06 00 37.649385 -08 12 30.77311
 2018-Dec-18 08:22 A   06 00 37.551840 -08 12 30.09011
 2018-Dec-18 08:23 A   06 00 37.454730 -08 12 29.40639
 2018-Dec-18 08:24 A   06 00 37.358056 -08 12 28.72198
 2018-Dec-18 08:25 A   06 00 37.261819 -08 12 28.03686
 2018-Dec-18 08:26 A   06 00 37.166021 -08 12 27.35104
 2018-Dec-18 08:27 A   06 00 37.070663 -08 12 26.66453
 2018-Dec-18 08:28 A   06 00 36.975746 -08 12 25.97733
 2018-Dec-18 08:29 A   06 00 36.881273 -08 12 25.28945
 2018-Dec-18 08:30 A   06 00 36.787244 -08 12 24.60088
 2018-Dec-18 08:31 A   06 00 36.693660 -08 12 23.91164
 2018-Dec-18 08:32 A   06 00 36.600524 -08 12 23.22173
 2018-Dec-18 08:33 A   06 00 36.507836 -08 12 22.53115
 2018-Dec-18 08:34 A   06 00 36.415598 -08 12 21.83990
 2018-Dec-18 08:35 A   06 00 36.323812 -08 12 21.14800
 2018-Dec-18 08:36 N   06 00 36.232477 -08 12 20.45544
 2018-Dec-18 08:37 N   06 00 36.141597 -08 12 19.76223
 2018-Dec-18 08:38 N   06 00 36.051171 -08 12 19.06837
 2018-Dec-18 08:39 N   06 00 35.961202 -08 12 18.37387
 2018-Dec-18 08:40 N   06 00 35.871690 -08 12 17.67873
 2018-Dec-18 08:41 N   06 00 35.782638 -08 12 16.98296
 2018-Dec-18 08:42 N   06 00 35.694046 -08 12 16.28656
 2018-Dec-18 08:43 N   06 00 35.605915 -08 12 15.58953
 2018-Dec-18 08:44 N   06 00 35.518247 -08 12 14.89188
 2018-Dec-18 08:45 N   06 00 35.431043 -08 12 14.19362
 2018-Dec-18 08:46 N   06 00 35.344304 -08 12 13.49474
 2018-Dec-18 08:47 N   06 00 35.258032 -08 12 12.79525
 2018-Dec-18 08:48 N   06 00 35.172227 -08 12 12.09517
 2018-Dec-18 08:49 N   06 00 35.086891 -08 12 11.39448
 2018-Dec-18 08:50 N   06 00 35.002026 -08 12 10.69319
 2018-Dec-18 08:51 N   06 00 34.917632 -08 12 09.99132
 2018-Dec-18 08:52 N   06 00 34.833710 -08 12 09.28886
 2018-Dec-18 08:53 N   06 00 34.750262 -08 12 08.58582
 2018-Dec-18 08:54 N   06 00 34.667288 -08 12 07.88220
 2018-Dec-18 08:55 N   06 00 34.584791 -08 12 07.17800
 2018-Dec-18 08:56 N   06 00 34.502771 -08 12 06.47324
 2018-Dec-18 08:57 N   06 00 34.421229 -08 12 05.76792
 2018-Dec-18 08:58 N   06 00 34.340166 -08 12 05.06204
 2018-Dec-18 08:59 N   06 00 34.259584 -08 12 04.35560
 2018-Dec-18 09:00 N   06 00 34.179484 -08 12 03.64861
 2018-Dec-18 09:01 N   06 00 34.099866 -08 12 02.94107
 2018-Dec-18 09:02 N   06 00 34.020732 -08 12 02.23299
 2018-Dec-18 09:03 N   06 00 33.942083 -08 12 01.52438
 2018-Dec-18 09:04 N   06 00 33.863920 -08 12 00.81523
 2018-Dec-18 09:05 N   06 00 33.786244 -08 12 00.10556
 2018-Dec-18 09:06 N   06 00 33.709056 -08 11 59.39536
 2018-Dec-18 09:07 N   06 00 33.632358 -08 11 58.68465
 2018-Dec-18 09:08 N   06 00 33.556149 -08 11 57.97342
 2018-Dec-18 09:09 N   06 00 33.480431 -08 11 57.26168
 2018-Dec-18 09:10 C   06 00 33.405206 -08 11 56.54943
 2018-Dec-18 09:11 C   06 00 33.330474 -08 11 55.83669
 2018-Dec-18 09:12 C   06 00 33.256236 -08 11 55.12344
 2018-Dec-18 09:13 C   06 00 33.182493 -08 11 54.40971
 2018-Dec-18 09:14 C   06 00 33.109247 -08 11 53.69549
 2018-Dec-18 09:15 C   06 00 33.036497 -08 11 52.98079
 2018-Dec-18 09:16 C   06 00 32.964246 -08 11 52.26561
 2018-Dec-18 09:17 C   06 00 32.892494 -08 11 51.54996
 2018-Dec-18 09:18 C   06 00 32.821241 -08 11 50.83384
 2018-Dec-18 09:19 C   06 00 32.750490 -08 11 50.11726
 2018-Dec-18 09:20 C   06 00 32.680240 -08 11 49.40022
 2018-Dec-18 09:21 C   06 00 32.610493 -08 11 48.68272
 2018-Dec-18 09:22 C   06 00 32.541250 -08 11 47.96478
 2018-Dec-18 09:23 C   06 00 32.472511 -08 11 47.24639
 2018-Dec-18 09:24 C   06 00 32.404277 -08 11 46.52756
 2018-Dec-18 09:25 C   06 00 32.336550 -08 11 45.80829
 2018-Dec-18 09:26 C   06 00 32.269330 -08 11 45.08860
 2018-Dec-18 09:27 C   06 00 32.202618 -08 11 44.36848
